OBJECT_NAME,OBJECT_ID,EPOCH,MEAN_MOTION,ECCENTRICITY,INCLINATION,RA_OF_ASC_NODE,ARG_OF_PERICENTER,MEAN_ANOMALY,EPHEMERIS_TYPE,CLASSIFICATION_TYPE,NORAD_CAT_ID,ELEMENT_SET_NO,REV_AT_EPOCH,BSTAR,MEAN_MOTION_DOT,MEAN_MOTION_DDOT
APSTAR-9,2015-059A,2026-01-26T15:59:34.138176,1.00271375,.00032113,0.0493,284.4442,326.0576,257.3362,0,U,40982,999,3770,0,-.254E-5,0
TURKSAT 4B,2015-060A,2026-01-26T13:56:06.639360,1.00271652,.00020648,0.0138,79.4148,223.7461,81.6913,0,U,40984,999,3767,0,.127E-5,0
NAVSTAR 75 (USA 265),2015-062A,2026-01-26T04:23:37.546944,2.00566965,.011147,56.8654,36.2840,231.0025,128.0361,0,U,41019,999,7498,0,-.38E-6,0
ZHONGXING-2C,2015-063A,2026-01-26T14:11:20.179392,1.00272754,.00082398,0.0981,256.5927,332.8368,212.7124,0,U,41021,999,3755,0,-.312E-5,0
YAOGAN-28,2015-064A,2026-01-26T15:47:21.948288,15.25194354,.00106251,97.2833,168.2162,337.5112,22.5659,0,U,41026,999,56909,.44058885E-3,.11011E-3,0
GSAT-15,2015-065A,2026-01-26T16:08:27.253824,1.00271833,.00018681,0.0688,264.3085,2.8883,194.3820,0,U,41028,999,3738,0,-.246E-5,0
BADR-7 (ARABSAT-6B),2015-065B,2026-01-25T20:42:11.290752,1.00272361,.0004293,0.0296,177.5055,74.2701,209.9063,0,U,41029,999,3734,0,.158E-5,0
COSMOS 2510,2015-066A,2026-01-22T03:07:24.022560,2.00814916,.72107913,63.3977,6.4231,274.4524,13.8984,0,U,41032,999,7453,0,.1317E-4,0
LAOSAT 1,2015-067A,2026-01-26T14:18:34.486272,1.00271361,.00019212,0.0533,260.8628,3.5609,204.6029,0,U,41034,999,3744,0,-.331E-5,0
TELSTAR 12V,2015-068A,2026-01-26T10:12:05.602176,1.00271132,.00026052,0.0142,66.2086,240.5344,316.9878,0,U,41036,999,3720,0,-.107E-5,0
YAOGAN-29,2015-069A,2026-01-26T14:58:05.608128,14.82943311,.00027436,98.0190,54.9329,106.9755,253.1760,0,U,41038,999,54964,.12658385E-3,.973E-5,0
ELEKTRO-L 2,2015-074A,2026-01-26T08:29:37.919904,1.00272372,.00036161,6.3355,72.2869,221.0658,305.1824,0,U,41105,999,3708,0,-.109E-5,0
COSMOS 2513,2015-075A,2026-01-26T15:47:25.972800,1.00273661,.0003126,0.0502,105.8993,182.3161,154.8317,0,U,41121,999,3712,0,-.127E-5,0
VELOX-CI,2015-077A,2026-01-26T12:30:40.008096,15.43742148,.00048599,14.9821,96.9517,310.6224,49.3678,0,U,41166,999,56075,.55508443E-3,.27102E-3,0
KENT RIDGE 1,2015-077B,2026-01-26T05:03:08.857152,15.22052180,.00086358,14.9793,241.0770,36.5886,323.5025,0,U,41167,999,55942,.26449167E-3,.7002E-4,0
DAMPE,2015-078A,2026-01-26T15:04:08.214240,15.30332361,.00109907,97.4572,31.4387,211.6690,148.3891,0,U,41173,999,56289,.24316205E-4,.637E-5,0
GSAT0209 (GALILEO 12),2015-079A,2026-01-26T02:03:09.663264,1.70474489,.00034724,55.7368,105.1622,328.0839,31.9361,0,U,41174,999,6235,0,-.11E-6,0
GSAT0208 (GALILEO 11),2015-079B,2026-01-26T07:20:14.074944,1.70474391,.0002897,55.7352,105.1532,328.9129,31.1102,0,U,41175,999,6277,0,-.13E-6,0
ORBCOMM FM114,2015-081A,2026-01-25T22:15:55.133280,14.58650949,.00029189,47.0063,314.4942,274.4564,85.5989,0,U,41179,999,53698,.3221001E-3,.1345E-4,0
ORBCOMM FM110,2015-081D,2026-01-25T23:38:48.726816,14.58635639,.00021556,47.0024,313.7034,147.4278,212.6741,0,U,41182,999,53686,.45338927E-3,.1962E-4,0
ORBCOMM FM118,2015-081E,2026-01-25T19:32:43.141344,14.58686236,.00021202,47.0053,314.8178,86.5164,273.5964,0,U,41183,999,53694,.3778436E-3,.1609E-4,0
ORBCOMM FM112,2015-081F,2026-01-26T13:41:57.096672,14.58632818,.00021535,46.9971,219.7614,269.2243,90.8396,0,U,41184,999,53827,.30811681E-3,.1279E-4,0
ORBCOMM FM113,2015-081G,2026-01-26T13:09:14.076576,14.58636915,.00018127,46.9989,220.2316,276.7465,83.3215,0,U,41185,999,53825,.32934056E-3,.1379E-4,0
ORBCOMM FM108,2015-081J,2026-01-26T15:32:54.623616,14.58666372,.00034058,47.0048,131.2844,257.9094,102.1410,0,U,41187,999,53941,.3725511E-3,.1583E-4,0
ORBCOMM FM117,2015-081K,2026-01-25T15:42:02.800512,14.58626794,.00037446,47.0001,134.6579,263.5373,96.5087,0,U,41188,999,53931,.32977988E-3,.138E-4,0
ORBCOMM FM116,2015-081L,2026-01-26T12:36:21.083328,14.58624863,.00014422,47.0006,220.3209,142.4813,217.6173,0,U,41189,999,53825,.20044568E-3,.772E-5,0
EXPRESS-AMU1,2015-082A,2026-01-26T13:52:07.021056,1.00272605,.00026955,0.0160,82.7621,202.3402,84.8720,0,U,41191,999,3684,0,.167E-5,0
GAOFEN-4,2015-083A,2026-01-26T16:54:26.067168,1.00277719,.0003364,0.2835,83.5201,92.8093,308.9190,0,U,41194,999,3711,0,-.324E-5,0
BELINTERSAT-1,2016-001A,2026-01-26T13:56:36.590784,1.00273732,.00011125,0.0391,264.1227,27.9061,94.4787,0,U,41238,999,3681,0,.118E-5,0
JASON-3,2016-002A,2026-01-26T15:26:31.070688,12.87626761,.00078757,66.0412,63.4193,274.1061,85.9058,0,U,41240,999,46902,.83951466E-4,-.41E-6,0
IRNSS-1E,2016-003A,2026-01-26T12:30:52.305408,1.00278096,.00193279,32.9234,61.7967,189.9085,173.5443,0,U,41241,999,3666,0,-.306E-5,0
