APSTAR-9                
1 40982U 15059A   26026.66636734 -.00000254  00000+0  00000+0 0  9990
2 40982   0.0493 284.4442 0003211 326.0576 257.3362  1.00271375 37706
TURKSAT 4B              
1 40984U 15060A   26026.58063240  .00000127  00000+0  00000+0 0  9999
2 40984   0.0138  79.4148 0002064 223.7461  81.6913  1.00271652 37674
NAVSTAR 75 (USA 265)    
1 41019U 15062A   26026.18307346 -.00000038  00000+0  00000+0 0  9997
2 41019  56.8654  36.2840 0111470 231.0025 128.0361  2.00566965 74989
ZHONGXING-2C            
1 41021U 15063A   26026.59120578 -.00000312  00000+0  00000+0 0  9991
2 41021   0.0981 256.5927 0008239 332.8368 212.7124  1.00272754 37556
YAOGAN-28               
1 41026U 15064A   26026.65789292  .00011011  00000+0  44059-3 0  9991
2 41026  97.2833 168.2162 0010625 337.5112  22.5659 15.25194354569096
GSAT-15                 
1 41028U 15065A   26026.67253766 -.00000246  00000+0  00000+0 0  9991
2 41028   0.0688 264.3085 0001868   2.8883 194.3820  1.00271833 37382
BADR-7 (ARABSAT-6B)     
1 41029U 15065B   26025.86263068  .00000158  00000+0  00000+0 0  9999
2 41029   0.0296 177.5055 0004293  74.2701 209.9063  1.00272361 37342
COSMOS 2510             
1 41032U 15066A   26022.13013915  .00001317  00000+0  00000+0 0  9993
2 41032  63.3977   6.4231 7210791 274.4524  13.8984  2.00814916 74531
LAOSAT 1                
1 41034U 15067A   26026.59623248 -.00000331  00000+0  00000+0 0  9992
2 41034   0.0533 260.8628 0001921   3.5609 204.6029  1.00271361 37445
TELSTAR 12V             
1 41036U 15068A   26026.42506484 -.00000107  00000+0  00000+0 0  9990
2 41036   0.0142  66.2086 0002605 240.5344 316.9878  1.00271132 37207
YAOGAN-29               
1 41038U 15069A   26026.62367602  .00000973  00000+0  12658-3 0  9998
2 41038  98.0190  54.9329 0002743 106.9755 253.1760 14.82943311549644
ELEKTRO-L 2             
1 41105U 15074A   26026.35391111 -.00000109  00000+0  00000+0 0  9997
2 41105   6.3355  72.2869 0003616 221.0658 305.1824  1.00272372 37084
COSMOS 2513             
1 41121U 15075A   26026.65793950 -.00000127  00000+0  00000+0 0  9996
2 41121   0.0502 105.8993 0003126 182.3161 154.8317  1.00273661 37125
VELOX-CI                
1 41166U 15077A   26026.52129639  .00027102  00000+0  55508-3 0  9998
2 41166  14.9821  96.9517 0004859 310.6224  49.3678 15.43742148560755
KENT RIDGE 1            
1 41167U 15077B   26026.21051918  .00007002  00000+0  26449-3 0  9998
2 41167  14.9793 241.0770 0008635  36.5886 323.5025 15.22052180559424
DAMPE                   
1 41173U 15078A   26026.62787285  .00000637  00000+0  24316-4 0  9993
2 41173  97.4572  31.4387 0010990 211.6690 148.3891 15.30332361562893
GSAT0209 (GALILEO 12)   
1 41174U 15079A   26026.08552851 -.00000011  00000+0  00000+0 0  9990
2 41174  55.7368 105.1622 0003472 328.0839  31.9361  1.70474489 62352
GSAT0208 (GALILEO 11)   
1 41175U 15079B   26026.30571846 -.00000013  00000+0  00000+0 0  9993
2 41175  55.7352 105.1532 0002897 328.9129  31.1102  1.70474391 62770
ORBCOMM FM114           
1 41179U 15081A   26025.92772145  .00001345  00000+0  32210-3 0  9992
2 41179  47.0063 314.4942 0002918 274.4564  85.5989 14.58650949536989
ORBCOMM FM110           
1 41182U 15081D   26025.98528619  .00001962  00000+0  45339-3 0  9998
2 41182  47.0024 313.7034 0002155 147.4278 212.6741 14.58635639536863
ORBCOMM FM118           
1 41183U 15081E   26025.81438821  .00001609  00000+0  37784-3 0  9999
2 41183  47.0053 314.8178 0002120  86.5164 273.5964 14.58686236536947
ORBCOMM FM112           
1 41184U 15081F   26026.57079973  .00001279  00000+0  30812-3 0  9991
2 41184  46.9971 219.7614 0002153 269.2243  90.8396 14.58632818538271
ORBCOMM FM113           
1 41185U 15081G   26026.54807959  .00001379  00000+0  32934-3 0  9990
2 41185  46.9989 220.2316 0001812 276.7465  83.3215 14.58636915538254
ORBCOMM FM108           
1 41187U 15081J   26026.64785444  .00001583  00000+0  37255-3 0  9995
2 41187  47.0048 131.2844 0003405 257.9094 102.1410 14.58666372539416
ORBCOMM FM117           
1 41188U 15081K   26025.65419908  .00001380  00000+0  32978-3 0  9997
2 41188  47.0001 134.6579 0003744 263.5373  96.5087 14.58626794539316
ORBCOMM FM116           
1 41189U 15081L   26026.52524402  .00000772  00000+0  20045-3 0  9997
2 41189  47.0006 220.3209 0001442 142.4813 217.6173 14.58624863538251
EXPRESS-AMU1            
1 41191U 15082A   26026.57785904  .00000167  00000+0  00000+0 0  9995
2 41191   0.0160  82.7621 0002695 202.3402  84.8720  1.00272605 36849
GAOFEN-4                
1 41194U 15083A   26026.70446837 -.00000324  00000+0  00000+0 0  9999
2 41194   0.2835  83.5201 0003364  92.8093 308.9190  1.00277719 37111
BELINTERSAT-1           
1 41238U 16001A   26026.58097906  .00000118  00000+0  00000+0 0  9994
2 41238   0.0391 264.1227 0001112  27.9061  94.4787  1.00273732 36819
JASON-3                 
1 41240U 16002A   26026.64341517 -.00000041  00000+0  83951-4 0  9992
2 41240  66.0412  63.4193 0007875 274.1061  85.9058 12.87626761469028
IRNSS-1E                
1 41241U 16003A   26026.52143872 -.00000306  00000+0  00000+0 0  9998
2 41241  32.9234  61.7967 0019327 189.9085 173.5443  1.00278096 36666
